{
    "links": {
        "self": "http://www.neowsapp.com/rest/v1/neo/3693517?api_key=iIulBulltgU6a56xZRHN4H3l9WmuAYTsLGpBGhQ2"
    },
    "id": "3693517",
    "neo_reference_id": "3693517",
    "name": "(2014 TH64)",
    "designation": "2014 TH64",
    "nasa_jpl_url": "http://ssd.jpl.nasa.gov/sbdb.cgi?sstr=3693517",
    "absolute_magnitude_h": 23.3,
    "estimated_diameter": {
        "kilometers": {
            "estimated_diameter_min": 0.058150704,
            "estimated_diameter_max": 0.130028927
        },
        "meters": {
            "estimated_diameter_min": 58.1507039646,
            "estimated_diameter_max": 130.0289270043
        },
        "miles": {
            "estimated_diameter_min": 0.0361331611,
            "estimated_diameter_max": 0.0807962044
        },
        "feet": {
            "estimated_diameter_min": 190.7831555951,
            "estimated_diameter_max": 426.6041048727
        }
    },
    "is_potentially_hazardous_asteroid": false,
    "close_approach_data": [
        {
            "close_approach_date": "2006-09-18",
            "close_approach_date_full": "2006-Sep-18 16:54",
            "epoch_date_close_approach": 1158598440000,
            "relative_velocity": {
                "kilometers_per_second": "12.4261402197",
                "kilometers_per_hour": "44734.1047909351",
                "miles_per_hour": "27796.0330574563"
            },
            "miss_distance": {
                "astronomical": "0.2210751418",
                "lunar": "85.9982301602",
                "kilometers": "33072370.323227966",
                "miles": "20550217.9925832908"
            },
            "orbiting_body": "Earth"
        },
        {
            "close_approach_date": "2014-05-22",
            "close_approach_date_full": "2014-May-22 18:35",
            "epoch_date_close_approach": 1400783700000,
            "relative_velocity": {
                "kilometers_per_second": "4.9722486352",
                "kilometers_per_hour": "17900.0950866034",
                "miles_per_hour": "11122.4229720064"
            },
            "miss_distance": {
                "astronomical": "0.2200558328",
                "lunar": "85.6017189592",
                "kilometers": "32919883.867956136",
                "miles": "20455467.3029252368"
            },
            "orbiting_body": "Earth"
        },
        {
            "close_approach_date": "2014-09-10",
            "close_approach_date_full": "2014-Sep-10 08:32",
            "epoch_date_close_approach": 1410337920000,
            "relative_velocity": {
                "kilometers_per_second": "7.0508179165",
                "kilometers_per_hour": "25382.9444994419",
                "miles_per_hour": "15771.9745974449"
            },
            "miss_distance": {
                "astronomical": "0.1135884885",
                "lunar": "44.1859220265",
                "kilometers": "16992595.936119495",
                "miles": "10558709.500839231"
            },
            "orbiting_body": "Earth"
        },
        {
            "close_approach_date": "2022-05-25",
            "close_approach_date_full": "2022-May-25 16:45",
            "epoch_date_close_approach": 1653497100000,
            "relative_velocity": {
                "kilometers_per_second": "9.2585018179",
                "kilometers_per_hour": "33330.6065446007",
                "miles_per_hour": "20710.3427165603"
            },
            "miss_distance": {
                "astronomical": "0.1984185761",
                "lunar": "77.1848261029",
                "kilometers": "29682996.352992907",
                "miles": "18444158.6667478366"
            },
            "orbiting_body": "Earth"
        }
    ],
    "orbital_data": {
        "orbit_id": "5",
        "orbit_determination_date": "2017-04-06 08:38:07",
        "first_observation_date": "2014-10-15",
        "last_observation_date": "2014-10-24",
        "data_arc_in_days": 9,
        "observations_used": 29,
        "orbit_uncertainty": "8",
        "minimum_orbit_intersection": ".106351",
        "jupiter_tisserand_invariant": "4.785",
        "epoch_osculation": "2456948.5",
        "eccentricity": ".2674263023126713",
        "semi_major_axis": "1.363774265123667",
        "inclination": "10.60488353868366",
        "ascending_node_longitude": "193.3626188042699",
        "orbital_period": "581.7175458176803",
        "perihelion_distance": ".9990651562124641",
        "perihelion_argument": "106.5517691534017",
        "aphelion_distance": "1.72848337403487",
        "perihelion_time": "2456864.063891190250",
        "mean_anomaly": "52.25388058182607",
        "mean_motion": ".6188570425428251",
        "equinox": "J2000",
        "orbit_class": {
            "orbit_class_type": "APO",
            "orbit_class_description": "Near-Earth asteroid orbits which cross the Earth’s orbit similar to that of 1862 Apollo",
            "orbit_class_range": "a (semi-major axis) > 1.0 AU; q (perihelion) < 1.017 AU"
        }
    },
    "is_sentry_object": false
}